CCSDS_OMM_VERS = 2.0
CREATION_DATE  = 
ORIGINATOR     = 

OBJECT_NAME    = UNKNOWN
OBJECT_ID      = 
CENTER_NAME    = EARTH
REF_FRAME      = TEME
TIME_SYSTEM    = UTC
MEAN_ELEMENT_THEORY = SGP/SGP4

EPOCH          = 2026-03-10T10:23:42.627264
MEAN_MOTION    = 13.76914684
ECCENTRICITY   = .0022071
INCLINATION    = 100.0570
RA_OF_ASC_NODE = 62.6187
ARG_OF_PERICENTER = 46.0299
MEAN_ANOMALY   = 314.2664

EPHEMERIS_TYPE = 0
CLASSIFICATION_TYPE = U
NORAD_CAT_ID   = 81893
ELEMENT_SET_NO = 999
REV_AT_EPOCH   = 61614
BSTAR          = .12944E-2
MEAN_MOTION_DOT = .1229E-4
MEAN_MOTION_DDOT = 0

CCSDS_OMM_VERS = 2.0
CREATION_DATE  = 
ORIGINATOR     = 

OBJECT_NAME    = UNKNOWN
OBJECT_ID      = 
CENTER_NAME    = EARTH
REF_FRAME      = TEME
TIME_SYSTEM    = UTC
MEAN_ELEMENT_THEORY = SGP/SGP4

EPOCH          = 2026-03-10T13:02:56.535360
MEAN_MOTION    = 13.20480450
ECCENTRICITY   = .0169495
INCLINATION    = 102.4112
RA_OF_ASC_NODE = 192.1729
ARG_OF_PERICENTER = 29.0011
MEAN_ANOMALY   = 332.0387

EPHEMERIS_TYPE = 0
CLASSIFICATION_TYPE = U
NORAD_CAT_ID   = 81899
ELEMENT_SET_NO = 999
REV_AT_EPOCH   = 59057
BSTAR          = .43616E-2
MEAN_MOTION_DOT = .1847E-4
MEAN_MOTION_DDOT = 0

CCSDS_OMM_VERS = 2.0
CREATION_DATE  = 
ORIGINATOR     = 

OBJECT_NAME    = UNKNOWN
OBJECT_ID      = 
CENTER_NAME    = EARTH
REF_FRAME      = TEME
TIME_SYSTEM    = UTC
MEAN_ELEMENT_THEORY = SGP/SGP4

EPOCH          = 2026-03-03T02:04:07.928832
MEAN_MOTION    = 13.15432327
ECCENTRICITY   = .0843493
INCLINATION    = 65.7062
RA_OF_ASC_NODE = 230.7222
ARG_OF_PERICENTER = 79.7316
MEAN_ANOMALY   = 289.7632

EPHEMERIS_TYPE = 0
CLASSIFICATION_TYPE = U
NORAD_CAT_ID   = 81921
ELEMENT_SET_NO = 999
REV_AT_EPOCH   = 3635
BSTAR          = .80283E-3
MEAN_MOTION_DOT = .1918E-4
MEAN_MOTION_DDOT = 0

CCSDS_OMM_VERS = 2.0
CREATION_DATE  = 
ORIGINATOR     = 

OBJECT_NAME    = UNKNOWN
OBJECT_ID      = 
CENTER_NAME    = EARTH
REF_FRAME      = TEME
TIME_SYSTEM    = UTC
MEAN_ELEMENT_THEORY = SGP/SGP4

EPOCH          = 2026-03-07T10:22:39.081792
MEAN_MOTION    = 12.42642894
ECCENTRICITY   = .0677948
INCLINATION    = 66.4243
RA_OF_ASC_NODE = 349.7242
ARG_OF_PERICENTER = 310.5900
MEAN_ANOMALY   = 161.2817

EPHEMERIS_TYPE = 0
CLASSIFICATION_TYPE = U
NORAD_CAT_ID   = 81946
ELEMENT_SET_NO = 999
REV_AT_EPOCH   = 55840
BSTAR          = .46517E-3
MEAN_MOTION_DOT = .9E-6
MEAN_MOTION_DDOT = 0

CCSDS_OMM_VERS = 2.0
CREATION_DATE  = 
ORIGINATOR     = 

OBJECT_NAME    = UNKNOWN
OBJECT_ID      = 
CENTER_NAME    = EARTH
REF_FRAME      = TEME
TIME_SYSTEM    = UTC
MEAN_ELEMENT_THEORY = SGP/SGP4

EPOCH          = 2026-02-15T06:28:00.562080
MEAN_MOTION    = 14.53453444
ECCENTRICITY   = .0369408
INCLINATION    = 66.0766
RA_OF_ASC_NODE = 348.0426
ARG_OF_PERICENTER = 102.1486
MEAN_ANOMALY   = 262.1250

EPHEMERIS_TYPE = 0
CLASSIFICATION_TYPE = U
NORAD_CAT_ID   = 81947
ELEMENT_SET_NO = 999
REV_AT_EPOCH   = 64039
BSTAR          = .46514E-3
MEAN_MOTION_DOT = .4726E-4
MEAN_MOTION_DDOT = 0

CCSDS_OMM_VERS = 2.0
CREATION_DATE  = 
ORIGINATOR     = 

OBJECT_NAME    = UNKNOWN
OBJECT_ID      = 
CENTER_NAME    = EARTH
REF_FRAME      = TEME
TIME_SYSTEM    = UTC
MEAN_ELEMENT_THEORY = SGP/SGP4

EPOCH          = 2026-03-09T07:12:33.425568
MEAN_MOTION    = 13.95858628
ECCENTRICITY   = .0033682
INCLINATION    = 66.5850
RA_OF_ASC_NODE = 43.7998
ARG_OF_PERICENTER = 17.5980
MEAN_ANOMALY   = 342.6258

EPHEMERIS_TYPE = 0
CLASSIFICATION_TYPE = U
NORAD_CAT_ID   = 81964
ELEMENT_SET_NO = 999
REV_AT_EPOCH   = 62612
BSTAR          = .294E-3
MEAN_MOTION_DOT = .325E-5
MEAN_MOTION_DDOT = 0

CCSDS_OMM_VERS = 2.0
CREATION_DATE  = 
ORIGINATOR     = 

OBJECT_NAME    = UNKNOWN
OBJECT_ID      = 
CENTER_NAME    = EARTH
REF_FRAME      = TEME
TIME_SYSTEM    = UTC
MEAN_ELEMENT_THEORY = SGP/SGP4

EPOCH          = 2026-03-10T10:20:42.526464
MEAN_MOTION    = 15.13316668
ECCENTRICITY   = .0003865
INCLINATION    = 86.6825
RA_OF_ASC_NODE = 115.3208
ARG_OF_PERICENTER = 172.6099
MEAN_ANOMALY   = 187.5198

EPHEMERIS_TYPE = 0
CLASSIFICATION_TYPE = U
NORAD_CAT_ID   = 81969
ELEMENT_SET_NO = 999
REV_AT_EPOCH   = 45342
BSTAR          = .65147E-3
MEAN_MOTION_DOT = .11635E-3
MEAN_MOTION_DDOT = 0

CCSDS_OMM_VERS = 2.0
CREATION_DATE  = 
ORIGINATOR     = 

OBJECT_NAME    = UNKNOWN
OBJECT_ID      = 
CENTER_NAME    = EARTH
REF_FRAME      = TEME
TIME_SYSTEM    = UTC
MEAN_ELEMENT_THEORY = SGP/SGP4

EPOCH          = 2026-03-04T23:05:58.793856
MEAN_MOTION    = 14.04989219
ECCENTRICITY   = .0516129
INCLINATION    = 65.7446
RA_OF_ASC_NODE = 268.6872
ARG_OF_PERICENTER = 256.6593
MEAN_ANOMALY   = 97.6465

EPHEMERIS_TYPE = 0
CLASSIFICATION_TYPE = U
NORAD_CAT_ID   = 81995
ELEMENT_SET_NO = 999
REV_AT_EPOCH   = 61577
BSTAR          = .96399E-3
MEAN_MOTION_DOT = .5163E-4
MEAN_MOTION_DDOT = 0

CCSDS_OMM_VERS = 2.0
CREATION_DATE  = 
ORIGINATOR     = 

OBJECT_NAME    = UNKNOWN
OBJECT_ID      = 
CENTER_NAME    = EARTH
REF_FRAME      = TEME
TIME_SYSTEM    = UTC
MEAN_ELEMENT_THEORY = SGP/SGP4

EPOCH          = 2026-03-07T20:23:28.172832
MEAN_MOTION    = 14.33067883
ECCENTRICITY   = .0230426
INCLINATION    = 97.9377
RA_OF_ASC_NODE = 213.4789
ARG_OF_PERICENTER = 187.1871
MEAN_ANOMALY   = 172.5993

EPHEMERIS_TYPE = 0
CLASSIFICATION_TYPE = U
NORAD_CAT_ID   = 82043
ELEMENT_SET_NO = 999
REV_AT_EPOCH   = 58603
BSTAR          = .19915E-2
MEAN_MOTION_DOT = .73E-4
MEAN_MOTION_DDOT = 0

CCSDS_OMM_VERS = 2.0
CREATION_DATE  = 
ORIGINATOR     = 

OBJECT_NAME    = UNKNOWN
OBJECT_ID      = 
CENTER_NAME    = EARTH
REF_FRAME      = TEME
TIME_SYSTEM    = UTC
MEAN_ELEMENT_THEORY = SGP/SGP4

EPOCH          = 2026-02-15T11:26:49.047648
MEAN_MOTION    = 14.36892613
ECCENTRICITY   = .0090792
INCLINATION    = 98.7424
RA_OF_ASC_NODE = 137.9574
ARG_OF_PERICENTER = 69.8098
MEAN_ANOMALY   = 291.2824

EPHEMERIS_TYPE = 0
CLASSIFICATION_TYPE = U
NORAD_CAT_ID   = 82051
ELEMENT_SET_NO = 999
REV_AT_EPOCH   = 58170
BSTAR          = .20421E-2
MEAN_MOTION_DOT = .6292E-4
MEAN_MOTION_DDOT = 0

CCSDS_OMM_VERS = 2.0
CREATION_DATE  = 
ORIGINATOR     = 

OBJECT_NAME    = UNKNOWN
OBJECT_ID      = 
CENTER_NAME    = EARTH
REF_FRAME      = TEME
TIME_SYSTEM    = UTC
MEAN_ELEMENT_THEORY = SGP/SGP4

EPOCH          = 2026-03-10T15:09:25.278048
MEAN_MOTION    = 14.39483119
ECCENTRICITY   = .0205727
INCLINATION    = 97.7388
RA_OF_ASC_NODE = 142.3767
ARG_OF_PERICENTER = 19.7407
MEAN_ANOMALY   = 341.1599

EPHEMERIS_TYPE = 0
CLASSIFICATION_TYPE = U
NORAD_CAT_ID   = 82073
ELEMENT_SET_NO = 999
REV_AT_EPOCH   = 58776
BSTAR          = .59382E-3
MEAN_MOTION_DOT = .2329E-4
MEAN_MOTION_DDOT = 0

CCSDS_OMM_VERS = 2.0
CREATION_DATE  = 
ORIGINATOR     = 

OBJECT_NAME    = UNKNOWN
OBJECT_ID      = 
CENTER_NAME    = EARTH
REF_FRAME      = TEME
TIME_SYSTEM    = UTC
MEAN_ELEMENT_THEORY = SGP/SGP4

EPOCH          = 2026-03-09T03:38:13.060320
MEAN_MOTION    = 14.15908779
ECCENTRICITY   = .0084567
INCLINATION    = 99.0127
RA_OF_ASC_NODE = 142.0565
ARG_OF_PERICENTER = 157.7190
MEAN_ANOMALY   = 202.7692

EPHEMERIS_TYPE = 0
CLASSIFICATION_TYPE = U
NORAD_CAT_ID   = 82139
ELEMENT_SET_NO = 999
REV_AT_EPOCH   = 49234
BSTAR          = .16135E-2
MEAN_MOTION_DOT = .3245E-4
MEAN_MOTION_DDOT = 0

